{
  "norad_id": 62835,
  "name": "STARLINK-11546 [DTC]",
  "history": [
    {
      "epoch": "2026-03-28T16:38:47.630112",
      "apogee_km": 357.4945057013747,
      "perigee_km": 355.13286853441696,
      "latitude_deg": 4.060204595194247,
      "longitude_deg": 170.08625567983836,
      "semi_major_axis_km": 6734.4506871178955,
      "eccentricity": 0.00017534,
      "inclination_deg": 43.0016,
      "raan_deg": 191.9634,
      "arg_perigee_deg": 267.0961,
      "mean_anomaly_deg": 92.9707,
      "mean_motion_rev_day": 15.7090346
    }
  ]
}