{"fetched_at":"2026-03-30T09:12:31Z","count":15922,"tles":[{"name":"STARLINK-11546 [DTC]","line1":"1 62835U 25019G   26087.69360683  .00188252  00000+0  14338-2 0  9991","line2":"2 62835  43.0016 191.9634 0001753 267.0961  92.9707 15.70903460 66865","category":"Starlink"}]}